LEMUR-2-CELIJO-SB-PK    
1 66781U 25276DW  26186.18029440  .00011915  00000+0  95586-3 0  9993
2 66781  97.5202 256.3655 0007554  88.8480 271.3609 15.00210002 25325
LEMUR-2-FINNIAN         
1 66782U 25276DX  26185.88605563  .00004231  00000+0  34005-3 0  9998
2 66782  97.5333 256.3227 0008270  36.6551 323.5237 15.00515956 22658
LEMUR-2-STARLIGHT       
1 66783U 25276DY  26185.92467693  .00011630  00000+0  95496-3 0  9996
2 66783  97.5223 255.9568 0014637  76.9781 283.3076 14.99261525 32850
LEMUR-2-TARTIFLETTE     
1 66784U 25276DZ  26185.92299715  .00009956  00000+0  81866-3 0  9999
2 66784  97.5226 255.9634 0013667  84.7358 275.5425 14.99259046 32853
LEMUR-2-VUKASIN         
1 66785U 25276EA  26186.16841347  .00002695  00000+0  21869-3 0  9991
2 66785  97.5256 256.5396 0004613  82.2970 277.8778 15.00457120 32844
LEMUR-2-HOTSPUR-TOM     
1 66786U 25276EB  26185.98349817  .00011341  00000+0  93388-3 0  9999
2 66786  97.5218 255.9992 0014031  75.8972 284.3810 14.99165308 32798
LEMUR-2-MYRA            
1 66787U 25276EC  26186.13385689  .00012210  00000+0  96903-3 0  9997
2 66787  97.5208 256.4281 0018384  84.6950 275.6371 15.00508428 32909
LEMUR-2 FIKRETDENGIZ    
1 67363U 26004A   26185.94980342  .00006741  00000+0  73092-3 0  9999
2 67363  97.8023 184.2361 0010589  84.1955 276.0469 14.88465087 25929
TWILIGHT-1 OBJECT B     
1 67364U 26004B   26185.71303457  .00002794  00000+0  31184-3 0  9991
2 67364  97.8065 184.0096 0010194  75.3271 284.9075 14.87770543 25896
LEMUR-2-MARIO-SOUSA     
1 67365U 26004C   26185.93109035  .00007339  00000+0  79123-3 0  9997
2 67365  97.7994 184.2129 0010168  85.5003 274.7375 14.88667918 25930
LEMUR-2-SONNENBLUME     
1 67367U 26004E   26185.25985628  .00003644  00000+0  39860-3 0  9993
2 67367  97.7989 183.5297 0009714  88.2038 272.0292 14.88408585 25838
LEMUR-2-WOBLER          
1 67368U 26004F   26185.72140651  .00006749  00000+0  72853-3 0  9993
2 67368  97.8041 184.1241 0009905  78.6329 281.6001 14.88647395 25909
LEMUR-2-GRAM-E-SUE      
1 67370U 26004H   26185.98171359  .00003630  00000+0  39567-3 0  9994
2 67370  97.7977 184.2565 0008850  88.4027 271.8204 14.88557879 25948
LEMUR-2-KATIE           
1 67387U 26004AA  26185.81566378  .00008924  00000+0  92602-3 0  9993
2 67387  97.8042 184.6098 0004345  57.7344 302.4295 14.90185004 25931
LEMUR-2-HCS-BAZUS       
1 67388U 26004AB  26185.94847037  .00004259  00000+0  44478-3 0  9997
2 67388  97.8028 184.7206 0003734  55.9351 304.2221 14.90225147 25951
